[
    {
        "Altitude(m)": 622205.8543982371,
        "Argument of Periapsis(deg)": 0.0,
        "Eccentricity": 0.0,
        "Inclination(deg)": 60.0,
        "Latitude(deg)": -52.162399279927605,
        "Longitude(deg)": 167.70028275321874,
        "Mean Anomaly(deg)": 245.4545,
        "RAAN(deg)": 40.0,
        "Satellite Name": "Test1 191",
        "Satellite Number": 191,
        "Semi-Major Axis(m)": 6980739.136638005,
        "Time(s)": 0
    },
    {
        "Altitude(m)": 622344.7614124513,
        "Argument of Periapsis(deg)": 0.00010418945913296404,
        "Eccentricity": 0.0,
        "Inclination(deg)": 60.0,
        "Latitude(deg)": -52.51998006867935,
        "Longitude(deg)": 168.48149303905578,
        "Mean Anomaly(deg)": 246.07460614546184,
        "RAAN(deg)": 39.99957995086026,
        "Satellite Name": "Test1 191",
        "Satellite Number": 191,
        "Semi-Major Axis(m)": 6980739.136638005,
        "Time(s)": 10
    }
]